CCSDS_OMM_VERS = 2.0
CREATION_DATE  = 
ORIGINATOR     = 

OBJECT_NAME    = STARLINK-36822
OBJECT_ID      = 2026-036F
CENTER_NAME    = EARTH
REF_FRAME      = TEME
TIME_SYSTEM    = UTC
MEAN_ELEMENT_THEORY = SGP/SGP4

EPOCH          = 2026-03-13T14:00:01.000224
MEAN_MOTION    = 15.69344286
ECCENTRICITY   = .00013175
INCLINATION    = 42.9992
RA_OF_ASC_NODE = 226.0668
ARG_OF_PERICENTER = 287.0202
MEAN_ANOMALY   = 142.2019

EPHEMERIS_TYPE = 0
CLASSIFICATION_TYPE = U
NORAD_CAT_ID   = 67909
ELEMENT_SET_NO = 999
REV_AT_EPOCH   = 427
BSTAR          = -.17554345E-1
MEAN_MOTION_DOT = -.1880138E-1
MEAN_MOTION_DDOT = 0

CCSDS_OMM_VERS = 2.0
CREATION_DATE  = 
ORIGINATOR     = 

OBJECT_NAME    = STARLINK-36847
OBJECT_ID      = 2026-036G
CENTER_NAME    = EARTH
REF_FRAME      = TEME
TIME_SYSTEM    = UTC
MEAN_ELEMENT_THEORY = SGP/SGP4

EPOCH          = 2026-03-13T14:00:01.000224
MEAN_MOTION    = 15.68566582
ECCENTRICITY   = .00015734
INCLINATION    = 42.9994
RA_OF_ASC_NODE = 226.0801
ARG_OF_PERICENTER = 281.9109
MEAN_ANOMALY   = 141.8550

EPHEMERIS_TYPE = 0
CLASSIFICATION_TYPE = U
NORAD_CAT_ID   = 67910
ELEMENT_SET_NO = 999
REV_AT_EPOCH   = 427
BSTAR          = -.19050375E-1
MEAN_MOTION_DOT = -.1964226E-1
MEAN_MOTION_DDOT = 0

CCSDS_OMM_VERS = 2.0
CREATION_DATE  = 
ORIGINATOR     = 

OBJECT_NAME    = STARLINK-36736
OBJECT_ID      = 2026-036H
CENTER_NAME    = EARTH
REF_FRAME      = TEME
TIME_SYSTEM    = UTC
MEAN_ELEMENT_THEORY = SGP/SGP4

EPOCH          = 2026-03-13T14:00:01.000224
MEAN_MOTION    = 15.76857939
ECCENTRICITY   = .0001507
INCLINATION    = 42.9991
RA_OF_ASC_NODE = 225.9032
ARG_OF_PERICENTER = 279.3599
MEAN_ANOMALY   = 215.2216

EPHEMERIS_TYPE = 0
CLASSIFICATION_TYPE = U
NORAD_CAT_ID   = 67911
ELEMENT_SET_NO = 999
REV_AT_EPOCH   = 427
BSTAR          = -.13401176E-1
MEAN_MOTION_DOT = -.1936077E-1
MEAN_MOTION_DDOT = 0

CCSDS_OMM_VERS = 2.0
CREATION_DATE  = 
ORIGINATOR     = 

OBJECT_NAME    = STARLINK-36676
OBJECT_ID      = 2026-036J
CENTER_NAME    = EARTH
REF_FRAME      = TEME
TIME_SYSTEM    = UTC
MEAN_ELEMENT_THEORY = SGP/SGP4

EPOCH          = 2026-03-13T14:00:01.000224
MEAN_MOTION    = 15.74748882
ECCENTRICITY   = .00013479
INCLINATION    = 42.9991
RA_OF_ASC_NODE = 225.9211
ARG_OF_PERICENTER = 277.2486
MEAN_ANOMALY   = 210.2705

EPHEMERIS_TYPE = 0
CLASSIFICATION_TYPE = U
NORAD_CAT_ID   = 67912
ELEMENT_SET_NO = 999
REV_AT_EPOCH   = 427
BSTAR          = -.14733579E-1
MEAN_MOTION_DOT = -.1937163E-1
MEAN_MOTION_DDOT = 0

CCSDS_OMM_VERS = 2.0
CREATION_DATE  = 
ORIGINATOR     = 

OBJECT_NAME    = STARLINK-36690
OBJECT_ID      = 2026-036K
CENTER_NAME    = EARTH
REF_FRAME      = TEME
TIME_SYSTEM    = UTC
MEAN_ELEMENT_THEORY = SGP/SGP4

EPOCH          = 2026-03-13T14:00:01.000224
MEAN_MOTION    = 15.74789917
ECCENTRICITY   = .00013605
INCLINATION    = 42.9990
RA_OF_ASC_NODE = 225.9097
ARG_OF_PERICENTER = 278.5292
MEAN_ANOMALY   = 213.5203

EPHEMERIS_TYPE = 0
CLASSIFICATION_TYPE = U
NORAD_CAT_ID   = 67913
ELEMENT_SET_NO = 999
REV_AT_EPOCH   = 427
BSTAR          = -.14701099E-1
MEAN_MOTION_DOT = -.1936516E-1
MEAN_MOTION_DDOT = 0

CCSDS_OMM_VERS = 2.0
CREATION_DATE  = 
ORIGINATOR     = 

OBJECT_NAME    = STARLINK-36724
OBJECT_ID      = 2026-036L
CENTER_NAME    = EARTH
REF_FRAME      = TEME
TIME_SYSTEM    = UTC
MEAN_ELEMENT_THEORY = SGP/SGP4

EPOCH          = 2026-03-13T14:00:01.000224
MEAN_MOTION    = 15.75172210
ECCENTRICITY   = .00013791
INCLINATION    = 42.9992
RA_OF_ASC_NODE = 225.8816
ARG_OF_PERICENTER = 275.9967
MEAN_ANOMALY   = 226.9385

EPHEMERIS_TYPE = 0
CLASSIFICATION_TYPE = U
NORAD_CAT_ID   = 67914
ELEMENT_SET_NO = 999
REV_AT_EPOCH   = 427
BSTAR          = -.14435435E-1
MEAN_MOTION_DOT = -.1934327E-1
MEAN_MOTION_DDOT = 0

CCSDS_OMM_VERS = 2.0
CREATION_DATE  = 
ORIGINATOR     = 

OBJECT_NAME    = STARLINK-36723
OBJECT_ID      = 2026-036M
CENTER_NAME    = EARTH
REF_FRAME      = TEME
TIME_SYSTEM    = UTC
MEAN_ELEMENT_THEORY = SGP/SGP4

EPOCH          = 2026-03-13T14:00:01.000224
MEAN_MOTION    = 15.76513994
ECCENTRICITY   = .00012414
INCLINATION    = 42.9991
RA_OF_ASC_NODE = 225.8750
ARG_OF_PERICENTER = 272.0005
MEAN_ANOMALY   = 233.8323

EPHEMERIS_TYPE = 0
CLASSIFICATION_TYPE = U
NORAD_CAT_ID   = 67915
ELEMENT_SET_NO = 999
REV_AT_EPOCH   = 427
BSTAR          = -.13568985E-1
MEAN_MOTION_DOT = -.1930781E-1
MEAN_MOTION_DDOT = 0

CCSDS_OMM_VERS = 2.0
CREATION_DATE  = 
ORIGINATOR     = 

OBJECT_NAME    = STARLINK-36721
OBJECT_ID      = 2026-036N
CENTER_NAME    = EARTH
REF_FRAME      = TEME
TIME_SYSTEM    = UTC
MEAN_ELEMENT_THEORY = SGP/SGP4

EPOCH          = 2026-03-13T14:00:01.000224
MEAN_MOTION    = 15.76548446
ECCENTRICITY   = .00011902
INCLINATION    = 42.9994
RA_OF_ASC_NODE = 225.8532
ARG_OF_PERICENTER = 272.5858
MEAN_ANOMALY   = 241.9619

EPHEMERIS_TYPE = 0
CLASSIFICATION_TYPE = U
NORAD_CAT_ID   = 67916
ELEMENT_SET_NO = 999
REV_AT_EPOCH   = 427
BSTAR          = -.13545434E-1
MEAN_MOTION_DOT = -.1930416E-1
MEAN_MOTION_DDOT = 0

CCSDS_OMM_VERS = 2.0
CREATION_DATE  = 
ORIGINATOR     = 

OBJECT_NAME    = STARLINK-36722
OBJECT_ID      = 2026-036P
CENTER_NAME    = EARTH
REF_FRAME      = TEME
TIME_SYSTEM    = UTC
MEAN_ELEMENT_THEORY = SGP/SGP4

EPOCH          = 2026-03-13T10:15:09.192672
MEAN_MOTION    = 15.81586123
ECCENTRICITY   = .00060223
INCLINATION    = 42.9984
RA_OF_ASC_NODE = 226.7681
ARG_OF_PERICENTER = 249.8084
MEAN_ANOMALY   = 110.2141

EPHEMERIS_TYPE = 0
CLASSIFICATION_TYPE = U
NORAD_CAT_ID   = 67917
ELEMENT_SET_NO = 999
REV_AT_EPOCH   = 426
BSTAR          = .26412025E-2
MEAN_MOTION_DOT = .583181E-2
MEAN_MOTION_DDOT = 0

CCSDS_OMM_VERS = 2.0
CREATION_DATE  = 
ORIGINATOR     = 

OBJECT_NAME    = STARLINK-36341
OBJECT_ID      = 2026-036Q
CENTER_NAME    = EARTH
REF_FRAME      = TEME
TIME_SYSTEM    = UTC
MEAN_ELEMENT_THEORY = SGP/SGP4

EPOCH          = 2026-03-13T14:00:01.000224
MEAN_MOTION    = 15.62059252
ECCENTRICITY   = .00016893
INCLINATION    = 42.9990
RA_OF_ASC_NODE = 226.2152
ARG_OF_PERICENTER = 274.9897
MEAN_ANOMALY   = 93.5368

EPHEMERIS_TYPE = 0
CLASSIFICATION_TYPE = U
NORAD_CAT_ID   = 67918
ELEMENT_SET_NO = 999
REV_AT_EPOCH   = 427
BSTAR          = -.24639268E-1
MEAN_MOTION_DOT = -.1953681E-1
MEAN_MOTION_DDOT = 0

CCSDS_OMM_VERS = 2.0
CREATION_DATE  = 
ORIGINATOR     = 

OBJECT_NAME    = STARLINK-36663
OBJECT_ID      = 2026-036R
CENTER_NAME    = EARTH
REF_FRAME      = TEME
TIME_SYSTEM    = UTC
MEAN_ELEMENT_THEORY = SGP/SGP4

EPOCH          = 2026-03-13T14:00:01.000224
MEAN_MOTION    = 15.76838744
ECCENTRICITY   = .00012731
INCLINATION    = 42.9993
RA_OF_ASC_NODE = 225.8284
ARG_OF_PERICENTER = 273.0498
MEAN_ANOMALY   = 251.3520

EPHEMERIS_TYPE = 0
CLASSIFICATION_TYPE = U
NORAD_CAT_ID   = 67919
ELEMENT_SET_NO = 999
REV_AT_EPOCH   = 427
BSTAR          = -.13386314E-1
MEAN_MOTION_DOT = -.1932556E-1
MEAN_MOTION_DDOT = 0

CCSDS_OMM_VERS = 2.0
CREATION_DATE  = 
ORIGINATOR     = 

OBJECT_NAME    = STARLINK-36375
OBJECT_ID      = 2026-036S
CENTER_NAME    = EARTH
REF_FRAME      = TEME
TIME_SYSTEM    = UTC
MEAN_ELEMENT_THEORY = SGP/SGP4

EPOCH          = 2026-03-13T14:00:01.000224
MEAN_MOTION    = 15.70998983
ECCENTRICITY   = .00013546
INCLINATION    = 42.9992
RA_OF_ASC_NODE = 225.9086
ARG_OF_PERICENTER = 276.2648
MEAN_ANOMALY   = 215.8015

EPHEMERIS_TYPE = 0
CLASSIFICATION_TYPE = U
NORAD_CAT_ID   = 67920
ELEMENT_SET_NO = 999
REV_AT_EPOCH   = 427
BSTAR          = -.17301869E-1
MEAN_MOTION_DOT = -.1974631E-1
MEAN_MOTION_DDOT = 0

