STARLINK-36822          
1 67909U 26036F   26072.58334491 -.01880138  00000+0 -17554-1 0  9995
2 67909  42.9992 226.0668 0001317 287.0202 142.2019 15.69344286  4271
STARLINK-36847          
1 67910U 26036G   26072.58334491 -.01964226  00000+0 -19050-1 0  9991
2 67910  42.9994 226.0801 0001573 281.9109 141.8550 15.68566582  4276
STARLINK-36736          
1 67911U 26036H   26072.58334491 -.01936077  00000+0 -13401-1 0  9999
2 67911  42.9991 225.9032 0001507 279.3599 215.2216 15.76857939  4272
STARLINK-36676          
1 67912U 26036J   26072.58334491 -.01937163  00000+0 -14734-1 0  9997
2 67912  42.9991 225.9211 0001347 277.2486 210.2705 15.74748882  4278
STARLINK-36690          
1 67913U 26036K   26072.58334491 -.01936516  00000+0 -14701-1 0  9993
2 67913  42.9990 225.9097 0001360 278.5292 213.5203 15.74789917  4277
STARLINK-36724          
1 67914U 26036L   26072.58334491 -.01934327  00000+0 -14435-1 0  9996
2 67914  42.9992 225.8816 0001379 275.9967 226.9385 15.75172210  4270
STARLINK-36723          
1 67915U 26036M   26072.58334491 -.01930781  00000+0 -13569-1 0  9994
2 67915  42.9991 225.8750 0001241 272.0005 233.8323 15.76513994  4274
STARLINK-36721          
1 67916U 26036N   26072.58334491 -.01930416  00000+0 -13545-1 0  9994
2 67916  42.9994 225.8532 0001190 272.5858 241.9619 15.76548446  4278
STARLINK-36722          
1 67917U 26036P   26072.42718973  .00583181  00000+0  26412-2 0  9997
2 67917  42.9984 226.7681 0006022 249.8084 110.2141 15.81586123  4267
STARLINK-36341          
1 67918U 26036Q   26072.58334491 -.01953681  00000+0 -24639-1 0  9991
2 67918  42.9990 226.2152 0001689 274.9897  93.5368 15.62059252  4270
STARLINK-36663          
1 67919U 26036R   26072.58334491 -.01932556  00000+0 -13386-1 0  9997
2 67919  42.9993 225.8284 0001273 273.0498 251.3520 15.76838744  4271
STARLINK-36375          
1 67920U 26036S   26072.58334491 -.01974631  00000+0 -17302-1 0  9991
2 67920  42.9992 225.9086 0001354 276.2648 215.8015 15.70998983  4275
